CAS-2T & KS-1Q          
1 41847U 16066G   20196.41230065  .00000044  00000-0  16386-4 0  9998
2 41847  98.6519 247.1989 0366378 148.4596 213.9130 14.38077249193292
NAYIF-1 (EO-88)         
1 42017U 17008BX  20196.49025574  .00001103  00000-0  44947-4 0  9991
2 42017  97.3585 263.6573 0005133 212.5091 147.5832 15.26559532189671
MAX VALIER SAT          
1 42778U 17036P   20196.41790602  .00000585  00000-0  28055-4 0  9994
2 42778  97.3030 249.3059 0010442 290.2771  69.7343 15.22659239169836
RADFXSAT (FOX-1B)       
1 43017U 17073E   20196.51938699  .00000388  00000-0  36074-4 0  9994
2 43017  97.7216 107.7106 0256022 322.4868  35.8713 14.78969276143162
FOX-1D (AO-92)          
1 43137U 18004AC  20196.46732057  .00000636  00000-0  29077-4 0  9997
2 43137  97.4446 267.4446 0008127 330.2817  29.7958 15.24165179139160
DIWATA-2B               
1 43678U 18084H   20196.57530017  .00000401  00000-0  45602-4 0  9991
2 43678  97.8881 314.9825 0011444  87.7020 272.5496 14.91642016 93068
ES'HAIL 2               
1 43700U 18090A   20196.55074981  .00000151  00000-0  00000-0 0  9996
2 43700   0.0154 348.7979 0001533 164.3757   3.7683  1.00273810  5989
FOX-1CLIFF (AO-95)      
1 43770U 18099N   20196.48189976  .00000608  00000-0  60701-4 0  9990
2 43770  97.7048 267.3903 0016205 105.8247 254.4761 14.95005223 87958
ITASAT 1                
1 43786U 18099AE  20196.47271639  .00000418  00000-0  43049-4 0  9999
2 43786  97.7062 267.8202 0016792 100.2649 260.0466 14.95340282 87978
JY1SAT (JO-97)          
1 43803U 18099AX  20196.48403789  .00000656  00000-0  64244-4 0  9997
2 43803  97.7024 267.6437 0016857 100.3868 259.9254 14.95522197 87979
PSAT2 (NO-104)          
1 44354U 19036R   20196.33770872  .00007562  00000-0  10749-3 0  9998
2 44354  28.5311 204.0061 0362840 238.1792 118.2981 15.03796703 57878
BRICSAT2 (NO-103)       
1 44355U 19036S   20196.31391169  .00015629  00000-0  21610-3 0  9997
2 44355  28.5313 194.0396 0340502 254.3801 101.8970 15.09441578 57961
JAISAT-1                
1 44419U 19038F   20196.34384414  .00000567  00000-0  35847-4 0  9991
2 44419  97.5401 157.6269 0022767  41.3791 318.9159 15.12815157 56660
DUCHIFAT-3              
1 44854U 19089C   20196.40398544  .00000141  00000-0  17799-4 0  9990
2 44854  36.9685 299.0804 0009698 286.0357  73.9319 14.99082704 32347
RS-44 & BREEZE-KM R/B   
1 44909U 19096E   20196.40994272  .00000025  00000-0  51700-4 0  9990
2 44909  82.5227 337.3987 0217816 163.2197 197.6261 12.79708244 25630
ORBITAL FACTORY 2 (OF-2)
1 45113U 19071C   20196.46548613  .00000754  00000-0  34529-4 0  9990
2 45113  51.6432 233.0533 0013164 153.2091 206.9574 15.33429035 25276
HUSKYSAT-1              
1 45119U 19071J   20196.37496543  .00000825  00000-0  36467-4 0  9992
2 45119  51.6426 233.1997 0012489 149.2050 210.9667 15.33638884 25259
